{"topCitys":[{"id":"1","city":"\u5317\u4eac\u5e02","pinyin":"beijingshi"},{"id":"82","city":"\u4e0a\u6d77\u5e02","pinyin":"shanghaishi"},{"id":"312","city":"\u897f\u5b89\u5e02","pinyin":"xianshi"},{"id":"221","city":"\u5e7f\u5dde\u5e02","pinyin":"guangzhoushi"}],
"citys":[{"id":"1","city":"\u5317\u4eac\u5e02","pinyin":"beijingshi"}, {"id":"2","city":"\u5929\u6d25\u5e02","pinyin":"tianjinshi"}, {"id":"3","city":"\u4fdd\u5b9a\u5e02","pinyin":"baodingshi"}, {"id":"4","city":"\u79e6\u7687\u5c9b\u5e02","pinyin":"qinhuangdaoshi"}, {"id":"5","city":"\u5510\u5c71\u5e02","pinyin":"tangshanshi"}, {"id":"6","city":"\u77f3\u5bb6\u5e84\u5e02","pinyin":"shijiazhuangshi"}, {"id":"7","city":"\u90af\u90f8\u5e02","pinyin":"handanshi"}, {"id":"8","city":"\u5eca\u574a\u5e02","pinyin":"langfangshi"}, {"id":"9","city":"\u4e09\u6cb3\u5e02","pinyin":"sanheshi"}, {"id":"10","city":"\u5f20\u5bb6\u53e3\u5e02","pinyin":"zhangjiakoushi"}, {"id":"11","city":"\u627f\u5fb7\u5e02","pinyin":"chengdeshi"}, {"id":"12","city":"\u6ca7\u5dde\u5e02","pinyin":"cangzhoushi"}, {"id":"13","city":"\u90a2\u53f0\u5e02","pinyin":"xingtaishi"}, {"id":"14","city":"\u8861\u6c34\u5e02","pinyin":"hengshuishi"}, {"id":"15","city":"\u592a\u539f\u5e02","pinyin":"taiyuanshi"}, {"id":"16","city":"\u592a\u8c37\u53bf","pinyin":"taiguxian"}, {"id":"17","city":"\u4e34\u6c7e\u5e02","pinyin":"linfenshi"}, {"id":"18","city":"\u5927\u540c\u5e02","pinyin":"datongshi"}, {"id":"19","city":"\u957f\u6cbb\u5e02","pinyin":"changzhishi"}, {"id":"20","city":"\u5415\u6881\u5e02","pinyin":"luliangshi"}, {"id":"21","city":"\u5ffb\u5dde\u5e02","pinyin":"xinzhoushi"}, {"id":"22","city":"\u8fd0\u57ce\u5e02","pinyin":"yunchengshi"}, {"id":"23","city":"\u664b\u4e2d\u5e02","pinyin":"jinzhongshi"}, {"id":"24","city":"\u9633\u6cc9\u5e02","pinyin":"yangquanshi"}, {"id":"25","city":"\u664b\u57ce\u5e02","pinyin":"jinchengshi"}, {"id":"26","city":"\u6714\u5dde\u5e02","pinyin":"shuozhoushi"}, {"id":"27","city":"\u547c\u548c\u6d69\u7279\u5e02","pinyin":"huhehaoteshi"}, {"id":"28","city":"\u5305\u5934\u5e02","pinyin":"baotoushi"}, {"id":"29","city":"\u901a\u8fbd\u5e02","pinyin":"tongliaoshi"}, {"id":"30","city":"\u4e34\u6cb3\u5e02","pinyin":"linheshi"}, {"id":"31","city":"\u8d64\u5cf0\u5e02","pinyin":"chifengshi"}, {"id":"32","city":"\u96c6\u5b81\u5e02","pinyin":"jiningshi"}, {"id":"33","city":"\u6d77\u62c9\u5c14","pinyin":"hailaer"}, {"id":"34","city":"\u4e4c\u5170\u5bdf\u5e03\u5e02","pinyin":"wulanchabushi"}, {"id":"35","city":"\u6ee1\u6d32\u91cc\u5e02","pinyin":"manzhoulishi"}, {"id":"36","city":"\u4e4c\u6d77\u5e02","pinyin":"wuhaishi"}, {"id":"37","city":"\u963f\u62c9\u5584","pinyin":"alashan"}, {"id":"38","city":"\u5df4\u5f66\u6dd6\u5c14\u5e02","pinyin":"bayannaoershi"}, {"id":"39","city":"\u79d1\u5c14\u6c81\u5e02","pinyin":"keerqinshi"}, {"id":"40","city":"\u9521\u6797\u90ed\u52d2\u76df","pinyin":"xilinguolemeng"}, {"id":"41","city":"\u4e4c\u5170\u6d69\u7279\u5e02","pinyin":"wulanhaoteshi"}, {"id":"42","city":"\u9102\u5c14\u591a\u65af\u5e02","pinyin":"eerduosishi"}, {"id":"43","city":"\u547c\u4f26\u8d1d\u5c14\u5e02","pinyin":"hulunbeiershi"}, {"id":"44","city":"\u5927\u8fde\u5e02","pinyin":"dalianshi"}, {"id":"45","city":"\u6c88\u9633\u5e02","pinyin":"shenyangshi"}, {"id":"46","city":"\u961c\u65b0\u5e02","pinyin":"fuxinshi"}, {"id":"47","city":"\u629a\u987a\u5e02","pinyin":"fushunshi"}, {"id":"48","city":"\u978d\u5c71\u5e02","pinyin":"anshanshi"}, {"id":"49","city":"\u9526\u5dde\u5e02","pinyin":"jinzhoushi"}, {"id":"50","city":"\u672c\u6eaa\u5e02","pinyin":"benxishi"}, {"id":"51","city":"\u846b\u82a6\u5c9b\u5e02","pinyin":"huludaoshi"}, {"id":"52","city":"\u4e39\u4e1c\u5e02","pinyin":"dandongshi"}, {"id":"53","city":"\u671d\u9633\u5e02","pinyin":"chaoyangshi"}, {"id":"54","city":"\u94c1\u5cad\u5e02","pinyin":"tielingshi"}, {"id":"55","city":"\u8fbd\u9633\u5e02","pinyin":"liaoyangshi"}, {"id":"56","city":"\u76d8\u9526\u5e02","pinyin":"panjinshi"}, {"id":"57","city":"\u8425\u53e3\u5e02","pinyin":"yingkoushi"}, {"id":"58","city":"\u957f\u6625\u5e02","pinyin":"changchunshi"}, {"id":"59","city":"\u5ef6\u5409\u5e02","pinyin":"yanjishi"}, {"id":"60","city":"\u5409\u6797\u5e02","pinyin":"jilinshi"}, {"id":"61","city":"\u56db\u5e73\u5e02","pinyin":"sipingshi"}, {"id":"62","city":"\u901a\u5316\u5e02","pinyin":"tonghuashi"}, {"id":"63","city":"\u767d\u57ce\u5e02","pinyin":"baichengshi"}, {"id":"64","city":"\u8fbd\u6e90\u5e02","pinyin":"liaoyuanshi"}, {"id":"65","city":"\u767d\u5c71\u5e02","pinyin":"baishanshi"}, {"id":"66","city":"\u677e\u539f\u5e02","pinyin":"songyuanshi"}, {"id":"67","city":"\u516c\u4e3b\u5cad\u5e02","pinyin":"gongzhulingshi"}, {"id":"68","city":"\u54c8\u5c14\u6ee8\u5e02","pinyin":"haerbinshi"}, {"id":"69","city":"\u4f73\u6728\u65af","pinyin":"jiamusi"}, {"id":"70","city":"\u9f50\u9f50\u54c8\u5c14\u5e02","pinyin":"qiqihaershi"}, {"id":"71","city":"\u5927\u5e86\u5e02","pinyin":"daqingshi"}, {"id":"72","city":"\u7261\u4e39\u6c5f\u5e02","pinyin":"mudanjiangshi"}, {"id":"73","city":"\u7ee5\u5316\u5e02","pinyin":"suihuashi"}, {"id":"74","city":"\u9ed1\u6cb3\u5e02","pinyin":"heiheshi"}, {"id":"75","city":"\u9e64\u5c97\u5e02","pinyin":"hegangshi"}, {"id":"76","city":"\u9e21\u897f\u5e02","pinyin":"jixishi"}, {"id":"77","city":"\u4f0a\u6625\u5e02","pinyin":"yichunshi"}, {"id":"78","city":"\u5927\u5174\u5b89\u5cad\u5730\u533a","pinyin":"daxinganlingdiqu"}, {"id":"79","city":"\u53cc\u9e2d\u5c71\u5e02","pinyin":"shuangyashanshi"}, {"id":"80","city":"\u4e03\u53f0\u6cb3\u5e02","pinyin":"qitaiheshi"}, {"id":"81","city":"\u4f73\u6728\u65af\u5e02","pinyin":"jiamusishi"}, {"id":"82","city":"\u4e0a\u6d77\u5e02","pinyin":"shanghaishi"}, {"id":"83","city":"\u5357\u4eac\u5e02","pinyin":"nanjingshi"}, {"id":"84","city":"\u5f90\u5dde\u5e02","pinyin":"xuzhoushi"}, {"id":"85","city":"\u65e0\u9521\u5e02","pinyin":"wuxishi"}, {"id":"86","city":"\u82cf\u5dde\u5e02","pinyin":"suzhoushi"}, {"id":"87","city":"\u626c\u5dde\u5e02","pinyin":"yangzhoushi"}, {"id":"88","city":"\u9547\u6c5f\u5e02","pinyin":"zhenjiangshi"}, {"id":"89","city":"\u5e38\u5dde\u5e02","pinyin":"changzhoushi"}, {"id":"90","city":"\u5357\u901a\u5e02","pinyin":"nantongshi"}, {"id":"91","city":"\u76d0\u57ce\u5e02","pinyin":"yanchengshi"}, {"id":"92","city":"\u6dee\u5b89\u5e02","pinyin":"huaianshi"}, {"id":"93","city":"\u8fde\u4e91\u6e2f\u5e02","pinyin":"lianyungangshi"}, {"id":"94","city":"\u6dee\u9634\u5e02","pinyin":"huaiyinshi"}, {"id":"95","city":"\u6cf0\u5dde\u5e02","pinyin":"taizhoushi"}, {"id":"96","city":"\u5f20\u5bb6\u6e2f\u5e02","pinyin":"zhangjiagangshi"}, {"id":"97","city":"\u5bbf\u8fc1\u5e02","pinyin":"suqianshi"}, {"id":"98","city":"\u6606\u5c71\u5e02","pinyin":"kunshanshi"}, {"id":"99","city":"\u676d\u5dde\u5e02","pinyin":"hangzhoushi"}, {"id":"100","city":"\u5b81\u6ce2\u5e02","pinyin":"ningboshi"}, {"id":"101","city":"\u91d1\u534e\u5e02","pinyin":"jinhuashi"}, {"id":"102","city":"\u6e29\u5dde\u5e02","pinyin":"wenzhoushi"}, {"id":"103","city":"\u7ecd\u5174\u5e02","pinyin":"shaoxingshi"}, {"id":"104","city":"\u5609\u5174\u5e02","pinyin":"jiaxingshi"}, {"id":"105","city":"\u821f\u5c71\u5e02","pinyin":"zhoushanshi"}, {"id":"106","city":"\u53f0\u5dde\u5e02","pinyin":"taizhoushi"}, {"id":"107","city":"\u6e56\u5dde\u5e02","pinyin":"huzhoushi"}, {"id":"108","city":"\u4e3d\u6c34\u5e02","pinyin":"lishuishi"}, {"id":"109","city":"\u8862\u5dde\u5e02","pinyin":"quzhoushi"}, {"id":"110","city":"\u5408\u80a5\u5e02","pinyin":"hefeishi"}, {"id":"111","city":"\u6dee\u5357\u5e02","pinyin":"huainanshi"}, {"id":"112","city":"\u9a6c\u978d\u5c71","pinyin":"maanshan"}, {"id":"113","city":"\u829c\u6e56\u5e02","pinyin":"wuhushi"}, {"id":"114","city":"\u6dee\u5317\u5e02","pinyin":"huaibeishi"}, {"id":"115","city":"\u868c\u57e0\u5e02","pinyin":"bengbushi"}, {"id":"116","city":"\u6ec1\u5dde\u5e02","pinyin":"chuzhoushi"}, {"id":"117","city":"\u961c\u9633\u5e02","pinyin":"fuyangshi"}, {"id":"118","city":"\u5b89\u5e86\u5e02","pinyin":"anqingshi"}, {"id":"119","city":"\u6c60\u5dde\u5e02","pinyin":"chizhoushi"}, {"id":"120","city":"\u516d\u5b89\u5e02","pinyin":"luanshi"}, {"id":"121","city":"\u5bbf\u5dde\u5e02","pinyin":"suzhoushi"}, {"id":"122","city":"\u9ec4\u5c71\u5e02","pinyin":"huangshanshi"}, {"id":"123","city":"\u5de2\u6e56\u5e02","pinyin":"chaohushi"}, {"id":"124","city":"\u94dc\u9675\u5e02","pinyin":"tonglingshi"}, {"id":"125","city":"\u4eb3\u5dde\u5e02","pinyin":"bozhoushi"}, {"id":"126","city":"\u9a6c\u978d\u5c71\u5e02","pinyin":"maanshanshi"}, {"id":"127","city":"\u5ba3\u57ce\u5e02","pinyin":"xuanchengshi"}, {"id":"128","city":"\u53a6\u95e8\u5e02","pinyin":"xiamenshi"}, {"id":"129","city":"\u6cc9\u5dde\u5e02","pinyin":"quanzhoushi"}, {"id":"130","city":"\u798f\u5dde\u5e02","pinyin":"fuzhoushi"}, {"id":"131","city":"\u5b81\u5fb7\u5e02","pinyin":"ningdeshi"}, {"id":"132","city":"\u6f33\u5dde\u5e02","pinyin":"zhangzhoushi"}, {"id":"133","city":"\u4e09\u660e\u5e02","pinyin":"sanmingshi"}, {"id":"134","city":"\u9f99\u5ca9\u5e02","pinyin":"longyanshi"}, {"id":"135","city":"\u8386\u7530\u5e02","pinyin":"putianshi"}, {"id":"136","city":"\u5357\u5e73\u5e02","pinyin":"nanpingshi"}, {"id":"137","city":"\u5357\u660c\u5e02","pinyin":"nanchangshi"}, {"id":"138","city":"\u8d63\u5dde\u5e02","pinyin":"ganzhoushi"}, {"id":"139","city":"\u629a\u5dde\u5e02","pinyin":"fuzhoushi"}, {"id":"140","city":"\u5409\u5b89\u5e02","pinyin":"jianshi"}, {"id":"141","city":"\u666f\u5fb7\u9547","pinyin":"jingdezhen"}, {"id":"142","city":"\u4e0a\u9976\u5e02","pinyin":"shangraoshi"}, {"id":"143","city":"\u4e5d\u6c5f\u5e02","pinyin":"jiujiangshi"}, {"id":"144","city":"\u65b0\u4f59\u5e02","pinyin":"xinyushi"}, {"id":"145","city":"\u5b9c\u6625\u5e02","pinyin":"yichunshi"}, {"id":"146","city":"\u840d\u4e61\u5e02","pinyin":"pingxiangshi"}, {"id":"147","city":"\u6a1f\u6811\u5e02","pinyin":"zhangshushi"}, {"id":"148","city":"\u666f\u5fb7\u9547\u5e02","pinyin":"jingdezhenshi"}, {"id":"149","city":"\u9e70\u6f6d\u5e02","pinyin":"yingtanshi"}, {"id":"150","city":"\u5171\u9752\u57ce","pinyin":"gongqingcheng"}, {"id":"151","city":"\u6d4e\u5357\u5e02","pinyin":"jinanshi"}, {"id":"152","city":"\u9752\u5c9b\u5e02","pinyin":"qingdaoshi"}, {"id":"153","city":"\u6dc4\u535a\u5e02","pinyin":"ziboshi"}, {"id":"154","city":"\u70df\u53f0\u5e02","pinyin":"yantaishi"}, {"id":"155","city":"\u804a\u57ce\u5e02","pinyin":"liaochengshi"}, {"id":"156","city":"\u6cf0\u5b89\u5e02","pinyin":"taianshi"}, {"id":"157","city":"\u6d4e\u5b81\u5e02","pinyin":"jiningshi"}, {"id":"158","city":"\u4e34\u6c82\u5e02","pinyin":"linyishi"}, {"id":"159","city":"\u6f4d\u574a\u5e02","pinyin":"weifangshi"}, {"id":"160","city":"\u6ee8\u5dde\u5e02","pinyin":"binzhoushi"}, {"id":"161","city":"\u5fb7\u5dde\u5e02","pinyin":"dezhoushi"}, {"id":"162","city":"\u67a3\u5e84\u5e02","pinyin":"zaozhuangshi"}, {"id":"163","city":"\u83cf\u6cfd\u5e02","pinyin":"hezeshi"}, {"id":"164","city":"\u65e5\u7167\u5e02","pinyin":"rizhaoshi"}, {"id":"165","city":"\u83b1\u829c\u5e02","pinyin":"laiwushi"}, {"id":"166","city":"\u5a01\u6d77\u5e02","pinyin":"weihaishi"}, {"id":"167","city":"\u4e1c\u8425\u5e02","pinyin":"dongyingshi"}, {"id":"168","city":"\u90d1\u5dde\u5e02","pinyin":"zhengzhoushi"}, {"id":"169","city":"\u5f00\u5c01\u5e02","pinyin":"kaifengshi"}, {"id":"170","city":"\u6d1b\u9633\u5e02","pinyin":"luoyangshi"}, {"id":"171","city":"\u7126\u4f5c\u5e02","pinyin":"jiaozuoshi"}, {"id":"172","city":"\u65b0\u4e61\u5e02","pinyin":"xinxiangshi"}, {"id":"173","city":"\u5e73\u9876\u5c71\u5e02","pinyin":"pingdingshanshi"}, {"id":"174","city":"\u5b89\u9633\u5e02","pinyin":"anyangshi"}, {"id":"175","city":"\u5357\u9633\u5e02","pinyin":"nanyangshi"}, {"id":"176","city":"\u5546\u4e18\u5e02","pinyin":"shangqiushi"}, {"id":"177","city":"\u4fe1\u9633\u5e02","pinyin":"xinyangshi"}, {"id":"178","city":"\u5468\u53e3\u5e02","pinyin":"zhoukoushi"}, {"id":"179","city":"\u5de9\u4e49\u5e02","pinyin":"gongyishi"}, {"id":"180","city":"\u9a7b\u9a6c\u5e97\u5e02","pinyin":"zhumadianshi"}, {"id":"181","city":"\u8bb8\u660c\u5e02","pinyin":"xuchangshi"}, {"id":"182","city":"\u6f2f\u6cb3\u5e02","pinyin":"luoheshi"}, {"id":"183","city":"\u4e09\u95e8\u5ce1\u5e02","pinyin":"sanmenxiashi"}, {"id":"184","city":"\u9e64\u58c1\u5e02","pinyin":"hebishi"}, {"id":"185","city":"\u6fee\u9633\u5e02","pinyin":"puyangshi"}, {"id":"186","city":"\u767b\u5c01\u5e02","pinyin":"dengfengshi"}, {"id":"187","city":"\u6c38\u57ce\u5e02","pinyin":"yongchengshi"}, {"id":"188","city":"\u6d4e\u6e90\u5e02","pinyin":"jiyuanshi"}, {"id":"189","city":"\u6b66\u6c49\u5e02","pinyin":"wuhanshi"}, {"id":"190","city":"\u8346\u5dde\u5e02","pinyin":"jingzhoushi"}, {"id":"191","city":"\u5b9c\u660c\u5e02","pinyin":"yichangshi"}, {"id":"192","city":"\u8346\u95e8\u5e02","pinyin":"jingmenshi"}, {"id":"193","city":"\u5341\u5830\u5e02","pinyin":"shiyanshi"}, {"id":"194","city":"\u9ec4\u77f3\u5e02","pinyin":"huangshishi"}, {"id":"195","city":"\u9ec4\u5188\u5e02","pinyin":"huanggangshi"}, {"id":"196","city":"\u5b5d\u611f\u5e02","pinyin":"xiaoganshi"}, {"id":"197","city":"\u6069\u65bd\u5e02","pinyin":"enshishi"}, {"id":"198","city":"\u54b8\u5b81\u5e02","pinyin":"xianningshi"}, {"id":"199","city":"\u8944\u6a0a\u5e02","pinyin":"xiangfanshi"}, {"id":"200","city":"\u9102\u5dde\u5e02","pinyin":"ezhoushi"}, {"id":"201","city":"\u6f5e\u6c5f\u5e02","pinyin":"lujiangshi"}, {"id":"202","city":"\u5929\u95e8\u5e02","pinyin":"tianmenshi"}, {"id":"203","city":"\u968f\u5dde\u5e02","pinyin":"suizhoushi"}, {"id":"204","city":"\u8944\u9633\u5e02","pinyin":"xiangyangshi"}, {"id":"205","city":"\u4ed9\u6843\u5e02","pinyin":"xiantaoshi"}, {"id":"206","city":"\u957f\u6c99\u5e02","pinyin":"changshashi"}, {"id":"207","city":"\u6e58\u6f6d\u5e02","pinyin":"xiangtanshi"}, {"id":"208","city":"\u5409\u9996\u5e02","pinyin":"jishoushi"}, {"id":"209","city":"\u8861\u9633\u5e02","pinyin":"hengyangshi"}, {"id":"210","city":"\u682a\u6d32\u5e02","pinyin":"zhuzhoushi"}, {"id":"211","city":"\u5cb3\u9633\u5e02","pinyin":"yueyangshi"}, {"id":"212","city":"\u76ca\u9633\u5e02","pinyin":"yiyangshi"}, {"id":"213","city":"\u90f4\u5dde\u5e02","pinyin":"chenzhoushi"}, {"id":"214","city":"\u6c38\u5dde\u5e02","pinyin":"yongzhoushi"}, {"id":"215","city":"\u5a04\u5e95\u5e02","pinyin":"loudishi"}, {"id":"216","city":"\u5e38\u5fb7\u5e02","pinyin":"changdeshi"}, {"id":"217","city":"\u90b5\u9633\u5e02","pinyin":"shaoyangshi"}, {"id":"218","city":"\u6000\u5316\u5e02","pinyin":"huaihuashi"}, {"id":"219","city":"\u6e58\u897f\u81ea\u6cbb\u5dde","pinyin":"xiangxizizhizhou"}, {"id":"220","city":"\u5f20\u5bb6\u754c\u5e02","pinyin":"zhangjiajieshi"}, {"id":"221","city":"\u5e7f\u5dde\u5e02","pinyin":"guangzhoushi"}, {"id":"222","city":"\u6c55\u5934\u5e02","pinyin":"shantoushi"}, {"id":"223","city":"\u6df1\u5733\u5e02","pinyin":"shenzhenshi"}, {"id":"224","city":"\u6c5f\u95e8\u5e02","pinyin":"jiangmenshi"}, {"id":"225","city":"\u6e5b\u6c5f\u5e02","pinyin":"zhanjiangshi"}, {"id":"226","city":"\u8302\u540d\u5e02","pinyin":"maomingshi"}, {"id":"227","city":"\u8087\u5e86\u5e02","pinyin":"zhaoqingshi"}, {"id":"228","city":"\u4e1c\u839e\u5e02","pinyin":"dongguanshi"}, {"id":"229","city":"\u97f6\u5173\u5e02","pinyin":"shaoguanshi"}, {"id":"230","city":"\u6885\u5dde\u5e02","pinyin":"meizhoushi"}, {"id":"231","city":"\u6f6e\u5dde\u5e02","pinyin":"chaozhoushi"}, {"id":"232","city":"\u60e0\u5dde\u5e02","pinyin":"huizhoushi"}, {"id":"233","city":"\u4f5b\u5c71\u5e02","pinyin":"foshanshi"}, {"id":"234","city":"\u63ed\u9633\u5e02","pinyin":"jieyangshi"}, {"id":"235","city":"\u6e05\u8fdc\u5e02","pinyin":"qingyuanshi"}, {"id":"236","city":"\u4e2d\u5c71\u5e02","pinyin":"zhongshanshi"}, {"id":"237","city":"\u73e0\u6d77\u5e02","pinyin":"zhuhaishi"}, {"id":"238","city":"\u5357\u6d77\u5e02","pinyin":"nanhaishi"}, {"id":"239","city":"\u6c55\u5c3e\u5e02","pinyin":"shanweishi"}, {"id":"240","city":"\u7f57\u5b9a\u5e02","pinyin":"luodingshi"}, {"id":"241","city":"\u6cb3\u6e90\u5e02","pinyin":"heyuanshi"}, {"id":"242","city":"\u9633\u6c5f\u5e02","pinyin":"yangjiangshi"}, {"id":"243","city":"\u5357\u5b81\u5e02","pinyin":"nanningshi"}, {"id":"244","city":"\u6842\u6797\u5e02","pinyin":"guilinshi"}, {"id":"245","city":"\u67f3\u5dde\u5e02","pinyin":"liuzhoushi"}, {"id":"246","city":"\u767e\u8272\u5e02","pinyin":"baiseshi"}, {"id":"247","city":"\u5d07\u5de6\u5e02","pinyin":"chongzuoshi"}, {"id":"248","city":"\u5b9c\u5dde\u5e02","pinyin":"yizhoushi"}, {"id":"249","city":"\u7389\u6797\u5e02","pinyin":"yulinshi"}, {"id":"250","city":"\u8d3a\u5dde\u5e02","pinyin":"hezhoushi"}, {"id":"251","city":"\u94a6\u5dde\u5e02","pinyin":"qinzhoushi"}, {"id":"252","city":"\u68a7\u5dde\u5e02","pinyin":"wuzhoushi"}, {"id":"253","city":"\u6276\u7ee5\u53bf","pinyin":"fusuixian"}, {"id":"254","city":"\u5317\u6d77\u5e02","pinyin":"beihaishi"}, {"id":"255","city":"\u6cb3\u6c60\u5e02","pinyin":"hechishi"}, {"id":"256","city":"\u8d35\u6e2f\u5e02","pinyin":"guigangshi"}, {"id":"257","city":"\u6d77\u53e3\u5e02","pinyin":"haikoushi"}, {"id":"258","city":"\u4e94\u6307\u5c71\u5e02","pinyin":"wuzhishanshi"}, {"id":"259","city":"\u4e09\u4e9a\u5e02","pinyin":"sanyashi"}, {"id":"260","city":"\u743c\u6d77\u5e02","pinyin":"qionghaishi"}, {"id":"261","city":"\u6587\u660c\u5e02","pinyin":"wenchangshi"}, {"id":"262","city":"\u91cd\u5e86\u5e02","pinyin":"chongqingshi"}, {"id":"263","city":"\u6210\u90fd\u5e02","pinyin":"chengdushi"}, {"id":"264","city":"\u7ef5\u9633\u5e02","pinyin":"mianyangshi"}, {"id":"265","city":"\u96c5\u5b89\u5e02","pinyin":"yaanshi"}, {"id":"266","city":"\u5357\u5145\u5e02","pinyin":"nanchongshi"}, {"id":"267","city":"\u5e7f\u6c49\u5e02","pinyin":"guanghanshi"}, {"id":"268","city":"\u81ea\u8d21\u5e02","pinyin":"zigongshi"}, {"id":"269","city":"\u6cf8\u5dde\u5e02","pinyin":"luzhoushi"}, {"id":"270","city":"\u4e50\u5c71\u5e02","pinyin":"leshanshi"}, {"id":"271","city":"\u5185\u6c5f\u5e02","pinyin":"neijiangshi"}, {"id":"272","city":"\u8fbe\u5ddd\u5e02","pinyin":"dachuanshi"}, {"id":"273","city":"\u7518\u5b5c\u5dde","pinyin":"ganzizhou"}, {"id":"274","city":"\u6500\u679d\u82b1\u5e02","pinyin":"panzhihuashi"}, {"id":"275","city":"\u5b9c\u5bbe\u5e02","pinyin":"yibinshi"}, {"id":"276","city":"\u897f\u660c\u5e02","pinyin":"xichangshi"}, {"id":"277","city":"\u6c76\u5ddd\u53bf","pinyin":"wenchuanxian"}, {"id":"278","city":"\u5e7f\u5143\u5e02","pinyin":"guangyuanshi"}, {"id":"279","city":"\u5fb7\u9633\u5e02","pinyin":"deyangshi"}, {"id":"280","city":"\u5e7f\u5b89\u5e02","pinyin":"guanganshi"}, {"id":"281","city":"\u7709\u5c71\u5e02","pinyin":"meishanshi"}, {"id":"282","city":"\u9042\u5b81\u5e02","pinyin":"suiningshi"}, {"id":"283","city":"\u8fbe\u5dde\u5e02","pinyin":"dazhoushi"}, {"id":"284","city":"\u8d35\u9633\u5e02","pinyin":"guiyangshi"}, {"id":"285","city":"\u9075\u4e49\u5e02","pinyin":"zunyishi"}, {"id":"286","city":"\u6bd5\u8282\u5e02","pinyin":"bijieshi"}, {"id":"287","city":"\u90fd\u5300\u5e02","pinyin":"duyunshi"}, {"id":"288","city":"\u516d\u76d8\u6c34\u5e02","pinyin":"liupanshuishi"}, {"id":"289","city":"\u5174\u4e49\u5e02","pinyin":"xingyishi"}, {"id":"290","city":"\u5b89\u987a\u5e02","pinyin":"anshunshi"}, {"id":"291","city":"\u51ef\u91cc\u5e02","pinyin":"kailishi"}, {"id":"292","city":"\u94dc\u4ec1\u5e02","pinyin":"tongrenshi"}, {"id":"293","city":"\u9ed4\u5357\u5dde","pinyin":"qiannanzhou"}, {"id":"294","city":"\u6606\u660e\u5e02","pinyin":"kunmingshi"}, {"id":"295","city":"\u662d\u901a\u5e02","pinyin":"zhaotongshi"}, {"id":"296","city":"\u66f2\u9756\u5e02","pinyin":"qujingshi"}, {"id":"297","city":"\u7389\u6eaa\u5e02","pinyin":"yuxishi"}, {"id":"298","city":"\u695a\u96c4\u5e02","pinyin":"chuxiongshi"}, {"id":"299","city":"\u666e\u6d31\u5e02","pinyin":"puershi"}, {"id":"300","city":"\u7ea2\u6cb3\u5dde","pinyin":"honghezhou"}, {"id":"301","city":"\u5927\u7406\u5dde","pinyin":"dalizhou"}, {"id":"302","city":"\u4fdd\u5c71\u5e02","pinyin":"baoshanshi"}, {"id":"303","city":"\u6587\u5c71\u5dde","pinyin":"wenshanzhou"}, {"id":"304","city":"\u695a\u96c4\u5dde","pinyin":"chuxiongzhou"}, {"id":"305","city":"\u4e3d\u6c5f\u5e02","pinyin":"lijiangshi"}, {"id":"306","city":"\u5fb7\u5b8f\u5dde","pinyin":"dehongzhou"}, {"id":"307","city":"\u4e34\u6ca7\u5e02","pinyin":"lincangshi"}, {"id":"308","city":"\u7ea2\u6cb3\u5e02","pinyin":"hongheshi"}, {"id":"309","city":"\u897f\u53cc\u7248\u7eb3\u5dde","pinyin":"xishuangbannazhou"}, {"id":"310","city":"\u62c9\u8428\u5e02","pinyin":"lasashi"}, {"id":"311","city":"\u54b8\u9633\u5e02","pinyin":"xianyangshi"}, {"id":"312","city":"\u897f\u5b89\u5e02","pinyin":"xianshi"}, {"id":"313","city":"\u6768\u51cc\u5e02","pinyin":"yanglingshi"}, {"id":"314","city":"\u5ef6\u5b89\u5e02","pinyin":"yananshi"}, {"id":"315","city":"\u5b9d\u9e21\u5e02","pinyin":"baojishi"}, {"id":"316","city":"\u6e2d\u5357\u5e02","pinyin":"weinanshi"}, {"id":"317","city":"\u6986\u6797\u5e02","pinyin":"yulinshi"}, {"id":"318","city":"\u6c49\u4e2d\u5e02","pinyin":"hanzhongshi"}, {"id":"319","city":"\u5546\u5dde\u5e02","pinyin":"shangzhoushi"}, {"id":"320","city":"\u5b89\u5eb7\u5e02","pinyin":"ankangshi"}, {"id":"321","city":"\u9ad8\u5dde\u5e02","pinyin":"gaozhoushi"}, {"id":"322","city":"\u94dc\u5ddd\u5e02","pinyin":"tongchuanshi"}, {"id":"323","city":"\u5170\u5dde\u5e02","pinyin":"lanzhoushi"}, {"id":"324","city":"\u897f\u5cf0\u5e02","pinyin":"xifengshi"}, {"id":"325","city":"\u7518\u5357\u5dde","pinyin":"gannanzhou"}, {"id":"326","city":"\u5929\u6c34\u5e02","pinyin":"tianshuishi"}, {"id":"327","city":"\u5f20\u6396\u5e02","pinyin":"zhangyeshi"}, {"id":"328","city":"\u5e73\u51c9\u5e02","pinyin":"pingliangshi"}, {"id":"329","city":"\u6210\u53bf","pinyin":"chengxian"}, {"id":"330","city":"\u5b9a\u897f\u5e02","pinyin":"dingxishi"}, {"id":"331","city":"\u6b66\u5a01\u5e02","pinyin":"wuweishi"}, {"id":"332","city":"\u91d1\u660c\u5e02","pinyin":"jinchangshi"}, {"id":"333","city":"\u767d\u94f6\u5e02","pinyin":"baiyinshi"}, {"id":"334","city":"\u5609\u5cea\u5173\u5e02","pinyin":"jiayuguanshi"}, {"id":"335","city":"\u9152\u6cc9\u5e02","pinyin":"jiuquanshi"}, {"id":"336","city":"\u897f\u5b81\u5e02","pinyin":"xiningshi"}, {"id":"337","city":"\u94f6\u5ddd\u5e02","pinyin":"yinchuanshi"}, {"id":"338","city":"\u77f3\u5634\u5c71","pinyin":"shizuishan"}, {"id":"339","city":"\u56fa\u539f\u5e02","pinyin":"guyuanshi"}, {"id":"340","city":"\u5434\u5fe0\u5e02","pinyin":"wuzhongshi"}, {"id":"341","city":"\u4e4c\u9c81\u6728\u9f50\u5e02","pinyin":"wulumuqishi"}, {"id":"342","city":"\u77f3\u6cb3\u5b50\u5e02","pinyin":"shihezishi"}, {"id":"343","city":"\u963f\u62c9\u5c14\u5e02","pinyin":"alaershi"}, {"id":"344","city":"\u4f0a\u5b81\u5e02","pinyin":"yiningshi"}, {"id":"345","city":"\u5580\u4ec0\u5e02","pinyin":"kashishi"}, {"id":"346","city":"\u4e4c\u9c81\u6728\u9f50","pinyin":"wulumuqi"}, {"id":"347","city":"\u660c\u5409\u5e02","pinyin":"changjishi"}, {"id":"348","city":"\u548c\u7530\u5e02","pinyin":"hetianshi"}, {"id":"349","city":"\u514b\u62c9\u739b\u4f9d\u5e02","pinyin":"kelamayishi"}, {"id":"350","city":"\u5df4\u5dde","pinyin":"bazhou"}, {"id":"351","city":"\u963f\u514b\u82cf\u5e02","pinyin":"akesushi"}, {"id":"352","city":"\u594e\u5c6f\u5e02","pinyin":"kuitunshi"}]}